SOYUZ-MS 28             
1 66664U 25275A   25356.66579354  .00012110  00000+0  22188-3 0  9993
2 66664  51.6326  93.3232 0003154 286.8846  73.1797 15.49732869  1289
1998-067XS              
1 66906U 98067XS  25356.45959424  .00030106  00000+0  51362-3 0  9999
2 66906  51.6319  94.1970 0002895 250.8689 109.1987 15.51071617  3121
1998-067XT              
1 66907U 98067XT  25356.32051957  .00069527  00000+0  11084-2 0  9995
2 66907  51.6311  94.7687 0003842 286.1212  73.9355 15.52583192  3104
1998-067XU              
1 66908U 98067XU  25356.51269145  .00063598  00000+0  10108-2 0  9995
2 66908  51.6310  93.8007 0003871 283.9304  76.1255 15.52707663  3137
SILVERSAT               
1 66909U 98067XV  25356.51144008  .00071888  00000+0  11325-2 0  9999
2 66909  51.6306  93.7929 0003866 288.2093  71.8476 15.52898333  3134
1998-067XW              
1 66910U 98067XW  25356.50967983  .00065266  00000+0  10313-2 0  9994
2 66910  51.6304  93.7808 0003988 260.6768  99.3771 15.52855241  3132
1998-067XX              
1 66911U 98067XX  25356.50666611  .00074426  00000+0  11547-2 0  9997
2 66911  51.6305  93.7603 0003725 265.4438  94.6127 15.53307333  3120
1998-067XY              
1 66912U 98067XY  25356.58173682  .00053250  00000+0  86868-3 0  9998
2 66912  51.6324  93.5129 0003912 278.0711  81.9835 15.52056622  3132
